[{"OBJECT_NAME":"STARLINK-31880","OBJECT_ID":"2024-084H","EPOCH":"2026-03-09T06:56:52.247904","MEAN_MOTION":15.27585034,"ECCENTRICITY":0.0001888,"INCLINATION":43.0046,"RA_OF_ASC_NODE":40.4529,"ARG_OF_PERICENTER":270.5346,"MEAN_ANOMALY":89.5289,"EPHEMERIS_TYPE":0,"CLASSIFICATION_TYPE":"U","NORAD_CAT_ID":59661,"ELEMENT_SET_NO":999,"REV_AT_EPOCH":10435,"BSTAR":1.5926467e-5,"MEAN_MOTION_DOT":1.76e-6,"MEAN_MOTION_DDOT":0},{"OBJECT_NAME":"YAOGAN-43 01H","OBJECT_ID":"2024-148H","EPOCH":"2026-03-10T00:13:57.702432","MEAN_MOTION":15.25826805,"ECCENTRICITY":0.000635,"INCLINATION":34.994,"RA_OF_ASC_NODE":64.6147,"ARG_OF_PERICENTER":359.2394,"MEAN_ANOMALY":0.8311,"EPHEMERIS_TYPE":0,"CLASSIFICATION_TYPE":"U","NORAD_CAT_ID":60465,"ELEMENT_SET_NO":999,"REV_AT_EPOCH":8702,"BSTAR":0.00039232254,"MEAN_MOTION_DOT":0.00010268,"MEAN_MOTION_DDOT":0}]
